[{"OBJECT_NAME":"ONEWEB-0525","OBJECT_ID":"2022-138AG","EPOCH":"2026-03-09T18:22:28.913088","MEAN_MOTION":13.19725056,"ECCENTRICITY":0.00017127,"INCLINATION":87.9231,"RA_OF_ASC_NODE":324.7724,"ARG_OF_PERICENTER":90.0733,"MEAN_ANOMALY":270.0596,"EPHEMERIS_TYPE":0,"CLASSIFICATION_TYPE":"U","NORAD_CAT_ID":54143,"ELEMENT_SET_NO":999,"REV_AT_EPOCH":16371,"BSTAR":-0.00047346633,"MEAN_MOTION_DOT":-1.77e-6,"MEAN_MOTION_DDOT":0},{"OBJECT_NAME":"SL-8 R\/B","OBJECT_ID":"1968-011B","EPOCH":"2026-03-09T21:54:14.921280","MEAN_MOTION":13.18032414,"ECCENTRICITY":0.00139713,"INCLINATION":74.0473,"RA_OF_ASC_NODE":261.6495,"ARG_OF_PERICENTER":127.6658,"MEAN_ANOMALY":232.5701,"EPHEMERIS_TYPE":0,"CLASSIFICATION_TYPE":"U","NORAD_CAT_ID":3131,"ELEMENT_SET_NO":999,"REV_AT_EPOCH":79227,"BSTAR":-0.00016874239,"MEAN_MOTION_DOT":-8.5e-7,"MEAN_MOTION_DDOT":0}]
